0 COSMOS 1275 DEB
1 12669U 81053Z   13281.79328941  .00001271  00000-0  98008-3 0   191
2 12669 083.0029 098.6090 0079304 247.1528 172.6766 13.90778432618400
0 COSMOS 1275 DEB
1 12669U 81053Z   13282.80091674  .00001235  00000-0  95222-3 0   201
2 12669 083.0029 097.8489 0079412 244.2584 177.6745 13.90783246618549
0 COSMOS 1275 DEB
1 12669U 81053Z   13283.80843874  .00001325  00000-0  10222-2 0   216
2 12669 083.0029 097.0888 0079457 241.3359 182.1860 13.90786508618689
0 COSMOS 1275 DEB
1 12669U 81053Z   13286.18014613  .00001364  00000-0  10523-2 0   230
2 12669 083.0031 095.2996 0079630 234.5118 176.9583 13.90792413619015
0 COSMOS 1275 DEB
1 12669U 81053Z   13287.20227126  .00001497  00000-0  11561-2 0   240
2 12669 083.0032 094.5283 0079721 231.5813 254.5883 13.90794726619157
0 COSMOS 1275 DEB
1 12669U 81053Z   13288.48261635  .00001890  00000-0  14621-2 0   252
2 12669 083.0034 093.5624 0079818 227.9317 185.0821 13.90800143619333
0 COSMOS 1275 DEB
1 12669U 81053Z   13289.93361485  .00001710  00000-0  13215-2 0   267
2 12669 083.0038 092.4679 0079901 223.7653 250.0705 13.90805494619535
0 COSMOS 1275 DEB
1 12669U 81053Z   13290.94177184  .00001745  00000-0  13486-2 0   270
2 12669 083.0040 091.7075 0079960 220.8659 257.8225 13.90809153619672
0 COSMOS 1275 DEB
1 12669U 81053Z   13291.94875631  .00001897  00000-0  14675-2 0   283
2 12669 083.0041 090.9479 0080025 217.9865 259.7016 13.90811937619810
0 COSMOS 1275 DEB
1 12669U 81053Z   13292.95686733  .00002066  00000-0  15988-2 0   296
2 12669 083.0042 090.1875 0080093 215.1040 267.2338 13.90815661619957
0 COSMOS 1275 DEB
1 12669U 81053Z   13294.18012852  .00002102  00000-0  16262-2 0   307
2 12669 083.0042 089.2647 0080164 211.6119 272.0173 13.90821545620120
0 COSMOS 1275 DEB
1 12669U 81053Z   13295.18693410  .00002301  00000-0  17811-2 0   316
2 12669 083.0042 088.5056 0080280 208.8080 272.9723 13.90825560620266
